NORAD_CAT_ID,OBJECT_NAME,OBJECT_TYPE,EPOCH,MEAN_MOTION,ECCENTRICITY,INCLINATION,RA_OF_ASC_NODE,ARG_OF_PERICENTER,MEAN_ANOMALY,BSTAR,MEAN_MOTION_DOT,MEAN_MOTION_DDOT,TLE_LINE0,TLE_LINE1,TLE_LINE2,SEMIMAJOR_AXIS,PERIOD,APOGEE,PERIGEE,DECAYED
51784.0,STARLINK-3632,PAYLOAD,2024-03-01 06:51:51,15.08842143,0.0001563,53.2167,63.9414,95.0644,265.0527,4.4285e-05,4.17e-06,0.0,0 STARLINK-3632,1 51784U 22017S   24061.28600828  .00000417  00000-0  44285-4 0  9993,2 51784  53.2167  63.9414 0001563  95.0644 265.0527 15.08842143110804,6917.874,95.437,540.82,538.658,0.0
51784.0,STARLINK-3632,PAYLOAD,2024-03-02 03:31:52,15.088323,0.0001518,53.2174,60.0752,93.651,266.4656,0.00017628,2.518e-05,0.0,0 STARLINK-3632,1 51784U 22017S   24062.14713077  .00002518  00000-0  17628-3 0  9994,2 51784  53.2174  60.0752 0001518  93.6510 266.4656 15.08832300112580,6917.904,95.438,540.819,538.719,0.0
51784.0,STARLINK-3632,PAYLOAD,2024-03-02 06:42:38,15.08818398,0.0001679,53.2177,59.4808,96.8132,263.3051,0.00042145,6.422e-05,0.0,0 STARLINK-3632,1 51784U 22017S   24062.27961373  .00006422  00000-0  42145-3 0  9992,2 51784  53.2177  59.4808 0001679  96.8132 263.3051 15.08818398110955,6917.946,95.439,540.973,538.65,0.0
51784.0,STARLINK-3632,PAYLOAD,2024-03-03 04:58:02,15.08837844,0.0001568,53.2183,55.3198,99.7552,260.3618,7.5632e-05,9.16e-06,0.0,0 STARLINK-3632,1 51784U 22017S   24063.20697355  .00000916  00000-0  75632-4 0  9992,2 51784  53.2183  55.3198 0001568  99.7552 260.3618 15.08837844112746,6917.887,95.438,540.837,538.667,0.0
51784.0,STARLINK-3632,PAYLOAD,2024-03-03 06:33:25,15.0883321,0.0001584,53.2185,55.0236,94.0822,266.0351,0.00010793,1.43e-05,0.0,0 STARLINK-3632,1 51784U 22017S   24063.27321421  .00001430  00000-0  10793-3 0  9995,2 51784  53.2185  55.0236 0001584  94.0822 266.0351 15.08833210111103,6917.901,95.438,540.862,538.67,0.0
51784.0,STARLINK-3632,PAYLOAD,2024-03-04 04:48:48,15.08852515,0.0001933,53.219,50.8627,120.145,239.9734,9.4648e-05,1.219e-05,0.0,0 STARLINK-3632,1 51784U 22017S   24064.20056392  .00001219  00000-0  94648-4 0  9998,2 51784  53.2190  50.8627 0001933 120.1450 239.9734 15.08852515112892,6917.842,95.437,541.044,538.37,0.0
51784.0,STARLINK-3632,PAYLOAD,2024-03-04 06:24:11,15.08852276,0.0001444,53.2182,50.5625,87.6135,272.5022,0.00013799,1.91e-05,0.0,0 STARLINK-3632,1 51784U 22017S   24064.26680449  .00001910  00000-0  13799-3 0  9995,2 51784  53.2182  50.5625 0001444  87.6135 272.5022 15.08852276111258,6917.843,95.437,540.707,538.709,0.0
51784.0,STARLINK-3632,PAYLOAD,2024-03-04 15:56:31,15.08841915,0.0001547,53.2177,48.7782,80.0147,280.1019,9.8245e-05,1.276e-05,0.0,0 STARLINK-3632,1 51784U 22017S   24064.66425004  .00001276  00000-0  98245-4 0  9998,2 51784  53.2177  48.7782 0001547  80.0147 280.1019 15.08841915112967,6917.875,95.437,540.81,538.669,0.0
51784.0,STARLINK-3632,PAYLOAD,2024-03-05 03:04:14,15.08820545,0.0001302,53.2174,46.6964,81.778,278.3359,-0.0001961,-3.406e-05,0.0,0 STARLINK-3632,1 51784U 22017S   24065.12794346 -.00003406  00000-0 -19610-3 0  9995,2 51784  53.2174  46.6964 0001302  81.7780 278.3359 15.08820545113034,6917.94,95.439,540.706,538.904,0.0
51784.0,STARLINK-3632,PAYLOAD,2024-03-05 07:50:23,15.08826903,0.0001429,53.2175,45.8032,78.9894,281.1258,-8.9049e-05,-1.704e-05,0.0,0 STARLINK-3632,1 51784U 22017S   24065.32666243 -.00001704  00000-0 -89049-4 0  9994,2 51784  53.2175  45.8032 0001429  78.9894 281.1258 15.08826903111410,6917.92,95.438,540.774,538.797,0.0
51784.0,STARLINK-3632,PAYLOAD,2024-03-05 22:08:51,15.08841704,0.0001424,53.2184,43.128,88.1355,271.98,0.00020686,3.006e-05,0.0,0 STARLINK-3632,1 51784U 22017S   24065.92281830  .00003006  00000-0  20686-3 0  9991,2 51784  53.2184  43.1280 0001424  88.1355 271.9800 15.08841704113155,6917.875,95.437,540.725,538.755,0.0
51784.0,STARLINK-3632,PAYLOAD,2024-03-06 07:41:09,15.08872357,0.0001239,53.2164,41.3445,85.1078,275.0056,0.0015293,0.00024156,0.0,0 STARLINK-3632,1 51784U 22017S   24066.32025372  .00024156  00000-0  15293-2 0  9999,2 51784  53.2164  41.3445 0001239  85.1078 275.0056 15.08872357113212,6917.781,95.436,540.504,538.789,0.0
51784.0,STARLINK-3632,PAYLOAD,2024-03-07 04:21:10,15.08855891,0.0001563,53.2166,37.4782,80.9998,279.117,0.00074809,0.00011643,0.0,0 STARLINK-3632,1 51784U 22017S   24067.18137642  .00011643  00000-0  74809-3 0  9994,2 51784  53.2166  37.4782 0001563  80.9998 279.1170 15.08855891113348,6917.832,95.437,540.778,538.616,0.0
51784.0,STARLINK-3632,PAYLOAD,2024-03-07 07:31:57,15.08853232,0.0001358,53.2169,36.885,67.3404,292.7731,0.0013836,0.00021809,0.0,0 STARLINK-3632,1 51784U 22017S   24067.31385747  .00021809  00000-0  13836-2 0  9997,2 51784  53.2169  36.8850 0001358  67.3404 292.7731 15.08853232111713,6917.84,95.437,540.644,538.766,0.0
51784.0,STARLINK-3632,PAYLOAD,2024-03-08 02:36:34,15.08849589,0.0001594,53.2189,33.3122,95.222,264.8954,0.00077046,0.00011998,0.0,0 STARLINK-3632,1 51784U 22017S   24068.10873835  .00011998  00000-0  77046-3 0  9997,2 51784  53.2189  33.3122 0001594  95.2220 264.8954 15.08849589113480,6917.851,95.437,540.819,538.613,0.0
51784.0,STARLINK-3632,PAYLOAD,2024-03-08 04:11:58,15.08849458,0.0001483,53.2185,33.0164,86.7722,273.344,0.00071182,0.00011062,0.0,0 STARLINK-3632,1 51784U 22017S   24068.17497842  .00011062  00000-0  71182-3 0  9991,2 51784  53.2185  33.0164 0001483  86.7722 273.3440 15.08849458111846,6917.851,95.437,540.742,538.691,0.0
51784.0,STARLINK-3632,PAYLOAD,2024-03-08 21:41:12,15.0884419,0.0001464,53.2176,29.7418,86.9802,273.1357,0.00048861,7.498e-05,0.0,0 STARLINK-3632,1 51784U 22017S   24068.90361896  .00007498  00000-0  48861-3 0  9997,2 51784  53.2176  29.7418 0001464  86.9802 273.1357 15.08844190111955,6917.868,95.437,540.745,538.72,0.0
51784.0,STARLINK-3632,PAYLOAD,2024-03-09 04:02:45,15.08847831,0.0001237,53.2182,28.5558,89.8086,270.3048,0.00038505,5.847e-05,0.0,0 STARLINK-3632,1 51784U 22017S   24069.16857795  .00005847  00000-0  38505-3 0  9994,2 51784  53.2182  28.5558 0001237  89.8086 270.3048 15.08847831113647,6917.856,95.437,540.577,538.866,0.0
51784.0,STARLINK-3632,PAYLOAD,2024-03-09 21:31:59,15.08843429,0.0001204,53.2189,25.2844,87.2287,272.8843,0.00019852,2.873e-05,0.0,0 STARLINK-3632,1 51784U 22017S   24069.89721856  .00002873  00000-0  19852-3 0  9992,2 51784  53.2189  25.2844 0001204  87.2287 272.8843 15.08843429113756,6917.87,95.437,540.568,538.902,0.0
51784.0,STARLINK-3632,PAYLOAD,2024-03-10 13:25:51,15.08843514,0.0001229,53.2183,22.3136,83.1405,276.9727,0.00011902,1.607e-05,0.0,0 STARLINK-3632,1 51784U 22017S   24070.55961848  .00001607  00000-0  11902-3 0  9996,2 51784  53.2183  22.3136 0001229  83.1405 276.9727 15.08843514112206,6917.87,95.437,540.585,538.884,0.0
51784.0,STARLINK-3632,PAYLOAD,2024-03-11 05:19:42,15.08842752,0.0001435,53.2193,19.3405,101.1008,259.0146,9.9271e-05,1.292e-05,0.0,0 STARLINK-3632,1 51784U 22017S   24071.22201798  .00001292  00000-0  99271-4 0  9998,2 51784  53.2193  19.3405 0001435 101.1008 259.0146 15.08842752113954,6917.872,95.437,540.73,538.744,0.0
51784.0,STARLINK-3632,PAYLOAD,2024-03-11 13:16:38,15.08840727,0.0001428,53.2193,17.8533,97.975,262.1405,6.9336e-05,8.16e-06,0.0,0 STARLINK-3632,1 51784U 22017S   24071.55321882  .00000816  00000-0  69336-4 0  9991,2 51784  53.2193  17.8533 0001428  97.9750 262.1405 15.08840727112353,6917.878,95.438,540.731,538.755,0.0
51784.0,STARLINK-3632,PAYLOAD,2024-03-12 03:35:06,15.08836766,0.0001605,53.2197,15.1784,96.0123,264.1052,1.6964e-06,-2.61e-06,0.0,0 STARLINK-3632,1 51784U 22017S   24072.14938387 -.00000261  00000-0  16964-5 0  9996,2 51784  53.2197  15.1784 0001605  96.0123 264.1052 15.08836766114098,6917.89,95.438,540.866,538.645,0.0
51784.0,STARLINK-3632,PAYLOAD,2024-03-12 19:28:58,15.08838853,0.0001567,53.2194,12.2034,91.0756,269.0416,0.00013895,1.924e-05,0.0,0 STARLINK-3632,1 51784U 22017S   24072.81178491  .00001924  00000-0  13895-3 0  9996,2 51784  53.2194  12.2034 0001567  91.0756 269.0416 15.08838853112540,6917.884,95.438,540.833,538.665,0.0
51784.0,STARLINK-3632,PAYLOAD,2024-03-13 05:01:16,15.08849336,0.0001507,53.2191,10.419,89.9059,270.2106,0.00017958,2.572e-05,0.0,0 STARLINK-3632,1 51784U 22017S   24073.20921954  .00002572  00000-0  17958-3 0  9994,2 51784  53.2191  10.4190 0001507  89.9059 270.2106 15.08849336114254,6917.852,95.437,540.759,538.674,0.0
51784.0,STARLINK-3632,PAYLOAD,2024-03-13 12:58:12,15.08844176,0.0001414,53.2186,8.9314,84.9539,275.1615,0.0001037,1.363e-05,0.0,0 STARLINK-3632,1 51784U 22017S   24073.54042209  .00001363  00000-0  10370-3 0  9996,2 51784  53.2186   8.9314 0001414  84.9539 275.1615 15.08844176112651,6917.868,95.437,540.711,538.754,0.0
51784.0,STARLINK-3632,PAYLOAD,2024-03-13 19:19:45,15.08837218,0.0001547,53.2181,7.7406,88.5495,271.5674,0.00014629,2.041e-05,0.0,0 STARLINK-3632,1 51784U 22017S   24073.80538676  .00002041  00000-0  14629-3 0  9998,2 51784  53.2181   7.7406 0001547  88.5495 271.5674 15.08837218114345,6917.889,95.438,540.824,538.684,0.0
51784.0,STARLINK-3632,PAYLOAD,2024-03-14 04:52:03,15.08850851,0.000173,53.2192,5.9591,83.6575,276.4614,0.00022189,3.246e-05,0.0,0 STARLINK-3632,1 51784U 22017S   24074.20282086  .00003246  00000-0  22189-3 0  9992,2 51784  53.2192   5.9591 0001730  83.6575 276.4614 15.08850851114404,6917.847,95.437,540.909,538.515,0.0
51784.0,STARLINK-3632,PAYLOAD,2024-03-15 04:42:50,15.08844138,0.0002209,53.22,1.4916,137.0584,223.0581,1.3535e-05,-7.3e-07,0.0,0 STARLINK-3632,1 51784U 22017S   24075.19641988 -.00000073  00000-0  13535-4 0  9993,2 51784  53.2200   1.4916 0002209 137.0584 223.0581 15.08844138114550,6917.868,95.437,541.261,538.205,0.0
51784.0,STARLINK-3632,PAYLOAD,2024-03-15 22:12:05,15.08834165,0.0001445,53.2193,358.2201,121.0954,239.018,0.00020641,2.998e-05,0.0,0 STARLINK-3632,1 51784U 22017S   24075.92506720  .00002998  00000-0  20641-3 0  9990,2 51784  53.2193 358.2201 0001445 121.0954 239.0180 15.08834165113017,6917.898,95.438,540.763,538.764,0.0
